{"type": "FeatureCollection", "features": [ {"type": "Feature", "properties": {"norad_id": 34014, "name": "COSMOS 2251 DEB", "group": "cosmos-2251-debris", "lat": 25.372634933418244, "lon": 63.51652744228899, "alt_km": 665.0761136209103, "timestamp": "2025-12-27T19:21:59.138790+00:00", "meta": {"OBJECT_NAME": "COSMOS 2251 DEB", "OBJECT_ID": "1993-036GZ", "EPOCH": "2025-12-27T03:03:29.687616", "MEAN_MOTION": 14.73309952, "ECCENTRICITY": 0.00376789, "INCLINATION": 74.0164, "RA_OF_ASC_NODE": 252.6545, "ARG_OF_PERICENTER": 28.3688, "MEAN_ANOMALY": 122.1468, "EPHEMERIS_TYPE": 0, "CLASSIFICATION_TYPE": "U", "NORAD_CAT_ID": 34014, "ELEMENT_SET_NO": 999, "REV_AT_EPOCH": 89515, "BSTAR": 0.0011003988, "MEAN_MOTION_DOT": 7.174e-05, "MEAN_MOTION_DDOT": 0}, "tle": {"line1": "1 34014U 93036GZ  25361.12742694  .00007174  00000+0  11004-2 0  9991", "line2": "2 34014  74.0164 252.6545 0037678  28.3688 122.1468 14.73309952895156"}}, "geometry": {"type": "Point", "coordinates": [63.51652744228899, 25.372634933418244]}}, {"type": "Feature", "properties": {"norad_id": 34015, "name": "COSMOS 2251 DEB", "group": "cosmos-2251-debris", "lat": -63.55514274214158, "lon": 95.46969054153757, "alt_km": 692.2279414217373, "timestamp": "2025-12-27T19:21:59.138799+00:00", "meta": {"OBJECT_NAME": "COSMOS 2251 DEB", "OBJECT_ID": "1993-036HA", "EPOCH": "2025-12-27T11:46:28.792128", "MEAN_MOTION": 14.60426432, "ECCENTRICITY": 0.0020743, "INCLINATION": 74.0243, "RA_OF_ASC_NODE": 131.2414, "ARG_OF_PERICENTER": 227.8606, "MEAN_ANOMALY": 200.9206, "EPHEMERIS_TYPE": 0, "CLASSIFICATION_TYPE": "U", "NORAD_CAT_ID": 34015, "ELEMENT_SET_NO": 999, "REV_AT_EPOCH": 88746, "BSTAR": 0.0012988, "MEAN_MOTION_DOT": 6.286e-05, "MEAN_MOTION_DDOT": 0}, "tle": {"line1": "1 34015U 93036HA  25361.49061102  .00006286  00000+0  12988-2 0  9995", "line2": "2 34015  74.0243 131.2414 0020743 227.8606 200.9206 14.60426432887462"}}, "geometry": {"type": "Point", "coordinates": [95.46969054153757, -63.55514274214158]}}, {"type": "Feature", "properties": {"norad_id": 34018, "name": "COSMOS 2251 DEB", "group": "cosmos-2251-debris", "lat": 71.90338875957214, "lon": -175.69800582103454, "alt_km": 759.7380081807569, "timestamp": "2025-12-27T19:21:59.138808+00:00", "meta": {"OBJECT_NAME": "COSMOS 2251 DEB", "OBJECT_ID": "1993-036HD", "EPOCH": "2025-12-27T07:02:20.330304", "MEAN_MOTION": 13.81087688, "ECCENTRICITY": 0.0263034, "INCLINATION": 73.8779, "RA_OF_ASC_NODE": 67.4335, "ARG_OF_PERICENTER": 100.516, "MEAN_ANOMALY": 325.0181, "EPHEMERIS_TYPE": 0, "CLASSIFICATION_TYPE": "U", "NORAD_CAT_ID": 34018, "ELEMENT_SET_NO": 999, "REV_AT_EPOCH": 84858, "BSTAR": 0.00036496, "MEAN_MOTION_DOT": 4.8e-06, "MEAN_MOTION_DDOT": 0}, "tle": {"line1": "1 34018U 93036HD  25361.29329086  .00000480  00000+0  36496-3 0  9995", "line2": "2 34018  73.8779  67.4335 0263034 100.5160 325.0181 13.81087688848581"}}, "geometry": {"type": "Point", "coordinates": [-175.69800582103454, 71.90338875957214]}}, {"type": "Feature", "properties": {"norad_id": 34019, "name": "COSMOS 2251 DEB", "group": "cosmos-2251-debris", "lat": -28.54359908327939, "lon": -147.96484146300747, "alt_km": 739.8878306733795, "timestamp": "2025-12-27T19:21:59.138817+00:00", "meta": {"OBJECT_NAME": "COSMOS 2251 DEB", "OBJECT_ID": "1993-036HE", "EPOCH": "2025-12-27T12:14:41.611776", "MEAN_MOTION": 14.34001707, "ECCENTRICITY": 0.0062002, "INCLINATION": 73.9544, "RA_OF_ASC_NODE": 23.5744, "ARG_OF_PERICENTER": 202.5102, "MEAN_ANOMALY": 275.8714, "EPHEMERIS_TYPE": 0, "CLASSIFICATION_TYPE": "U", "NORAD_CAT_ID": 34019, "ELEMENT_SET_NO": 999, "REV_AT_EPOCH": 87732, "BSTAR": 0.00079138, "MEAN_MOTION_DOT": 2.231e-05, "MEAN_MOTION_DDOT": 0}, "tle": {"line1": "1 34019U 93036HE  25361.51020384  .00002231  00000+0  79138-3 0  9996", "line2": "2 34019  73.9544  23.5744 0062002 202.5102 275.8714 14.34001707877326"}}, "geometry": {"type": "Point", "coordinates": [-147.96484146300747, -28.54359908327939]}}, {"type": "Feature", "properties": {"norad_id": 34021, "name": "COSMOS 2251 DEB", "group": "cosmos-2251-debris", "lat": 73.04389619402045, "lon": -148.32008897926616, "alt_km": 730.9469131830429, "timestamp": "2025-12-27T19:21:59.138827+00:00", "meta": {"OBJECT_NAME": "COSMOS 2251 DEB", "OBJECT_ID": "1993-036HG", "EPOCH": "2025-12-27T01:31:24.082752", "MEAN_MOTION": 14.50000929, "ECCENTRICITY": 0.00209612, "INCLINATION": 74.0363, "RA_OF_ASC_NODE": 102.9338, "ARG_OF_PERICENTER": 245.7045, "MEAN_ANOMALY": 290.881, "EPHEMERIS_TYPE": 0, "CLASSIFICATION_TYPE": "U", "NORAD_CAT_ID": 34021, "ELEMENT_SET_NO": 999, "REV_AT_EPOCH": 88837, "BSTAR": 0.00056273124, "MEAN_MOTION_DOT": 2.158e-05, "MEAN_MOTION_DDOT": 0}, "tle": {"line1": "1 34021U 93036HG  25361.06347318  .00002158  00000+0  56273-3 0  9991", "line2": "2 34021  74.0363 102.9338 0020961 245.7045 290.8810 14.50000929888378"}}, "geometry": {"type": "Point", "coordinates": [-148.32008897926616, 73.04389619402045]}}, {"type": "Feature", "properties": {"norad_id": 34022, "name": "COSMOS 2251 DEB", "group": "cosmos-2251-debris", "lat": 34.56736529396814, "lon": -105.60508469102224, "alt_km": 759.3874458058435, "timestamp": "2025-12-27T19:21:59.138835+00:00", "meta": {"OBJECT_NAME": "COSMOS 2251 DEB", "OBJECT_ID": "1993-036HH", "EPOCH": "2025-12-27T09:42:52.158240", "MEAN_MOTION": 14.38983985, "ECCENTRICITY": 0.0023117, "INCLINATION": 74.0533, "RA_OF_ASC_NODE": 243.7738, "ARG_OF_PERICENTER": 306.4345, "MEAN_ANOMALY": 167.0462, "EPHEMERIS_TYPE": 0, "CLASSIFICATION_TYPE": "U", "NORAD_CAT_ID": 34022, "ELEMENT_SET_NO": 999, "REV_AT_EPOCH": 88406, "BSTAR": 0.00022144, "MEAN_MOTION_DOT": 6.59e-06, "MEAN_MOTION_DDOT": 0}, "tle": {"line1": "1 34022U 93036HH  25361.40477035  .00000659  00000+0  22144-3 0  9994", "line2": "2 34022  74.0533 243.7738 0023117 306.4345 167.0462 14.38983985884068"}}, "geometry": {"type": "Point", "coordinates": [-105.60508469102224, 34.56736529396814]}}, {"type": "Feature", "properties": {"norad_id": 34023, "name": "COSMOS 2251 DEB", "group": "cosmos-2251-debris", "lat": 40.4125170986254, "lon": -122.02192558771836, "alt_km": 751.8387788951522, "timestamp": "2025-12-27T19:21:59.138844+00:00", "meta": {"OBJECT_NAME": "COSMOS 2251 DEB", "OBJECT_ID": "1993-036HJ", "EPOCH": "2025-12-26T21:35:02.634720", "MEAN_MOTION": 14.40588126, "ECCENTRICITY": 0.0018956, "INCLINATION": 74.0235, "RA_OF_ASC_NODE": 225.5388, "ARG_OF_PERICENTER": 319.2916, "MEAN_ANOMALY": 57.961, "EPHEMERIS_TYPE": 0, "CLASSIFICATION_TYPE": "U", "NORAD_CAT_ID": 34023, "ELEMENT_SET_NO": 999, "REV_AT_EPOCH": 88418, "BSTAR": 0.000299, "MEAN_MOTION_DOT": 9.28e-06, "MEAN_MOTION_DDOT": 0}, "tle": {"line1": "1 34023U 93036HJ  25360.89933605  .00000928  00000+0  29900-3 0  9993", "line2": "2 34023  74.0235 225.5388 0018956 319.2916  57.9610 14.40588126884184"}}, "geometry": {"type": "Point", "coordinates": [-122.02192558771836, 40.4125170986254]}}, {"type": "Feature", "properties": {"norad_id": 34024, "name": "COSMOS 2251 DEB", "group": "cosmos-2251-debris", "lat": 45.961675776784745, "lon": 91.17166078502234, "alt_km": 783.4328582107237, "timestamp": "2025-12-27T19:21:59.138853+00:00", "meta": {"OBJECT_NAME": "COSMOS 2251 DEB", "OBJECT_ID": "1993-036HK", "EPOCH": "2025-12-27T05:55:06.196800", "MEAN_MOTION": 14.35412785, "ECCENTRICITY": 0.0021649, "INCLINATION": 74.0471, "RA_OF_ASC_NODE": 289.4042, "ARG_OF_PERICENTER": 337.1125, "MEAN_ANOMALY": 139.9629, "EPHEMERIS_TYPE": 0, "CLASSIFICATION_TYPE": "U", "NORAD_CAT_ID": 34024, "ELEMENT_SET_NO": 999, "REV_AT_EPOCH": 88232, "BSTAR": 0.0002213, "MEAN_MOTION_DOT": 6.11e-06, "MEAN_MOTION_DDOT": 0}, "tle": {"line1": "1 34024U 93036HK  25361.24659950  .00000611  00000+0  22130-3 0  9999", "line2": "2 34024  74.0471 289.4042 0021649 337.1125 139.9629 14.35412785882323"}}, "geometry": {"type": "Point", "coordinates": [91.17166078502234, 45.961675776784745]}}, {"type": "Feature", "properties": {"norad_id": 34026, "name": "COSMOS 2251 DEB", "group": "cosmos-2251-debris", "lat": -0.4411377343558283, "lon": 132.3587722006794, "alt_km": 760.5543003509392, "timestamp": "2025-12-27T19:21:59.138862+00:00", "meta": {"OBJECT_NAME": "COSMOS 2251 DEB", "OBJECT_ID": "1993-036HM", "EPOCH": "2025-12-27T06:32:17.074176", "MEAN_MOTION": 13.65325964, "ECCENTRICITY": 0.0349422, "INCLINATION": 73.7669, "RA_OF_ASC_NODE": 313.1187, "ARG_OF_PERICENTER": 180.8853, "MEAN_ANOMALY": 253.1693, "EPHEMERIS_TYPE": 0, "CLASSIFICATION_TYPE": "U", "NORAD_CAT_ID": 34026, "ELEMENT_SET_NO": 999, "REV_AT_EPOCH": 83730, "BSTAR": 0.0005045, "MEAN_MOTION_DOT": 6e-06, "MEAN_MOTION_DDOT": 0}, "tle": {"line1": "1 34026U 93036HM  25361.27241984  .00000600  00000+0  50450-3 0  9992", "line2": "2 34026  73.7669 313.1187 0349422 180.8853 253.1693 13.65325964837300"}}, "geometry": {"type": "Point", "coordinates": [132.3587722006794, -0.4411377343558283]}}, {"type": "Feature", "properties": {"norad_id": 34028, "name": "COSMOS 2251 DEB", "group": "cosmos-2251-debris", "lat": -62.50225747716745, "lon": -69.58898568602662, "alt_km": 1587.9570549258015, "timestamp": "2025-12-27T19:21:59.138872+00:00", "meta": {"OBJECT_NAME": "COSMOS 2251 DEB", "OBJECT_ID": "1993-036HP", "EPOCH": "2025-12-27T03:26:12.566400", "MEAN_MOTION": 13.20635761, "ECCENTRICITY": 0.05434724, "INCLINATION": 73.884, "RA_OF_ASC_NODE": 325.1679, "ARG_OF_PERICENTER": 100.5363, "MEAN_ANOMALY": 279.1161, "EPHEMERIS_TYPE": 0, "CLASSIFICATION_TYPE": "U", "NORAD_CAT_ID": 34028, "ELEMENT_SET_NO": 999, "REV_AT_EPOCH": 81198, "BSTAR": 0.00068196706, "MEAN_MOTION_DOT": 5.86e-06, "MEAN_MOTION_DDOT": 0}, "tle": {"line1": "1 34028U 93036HP  25361.14320100  .00000586  00000+0  68197-3 0  9998", "line2": "2 34028  73.8840 325.1679 0543472 100.5363 279.1161 13.20635761811983"}}, "geometry": {"type": "Point", "coordinates": [-69.58898568602662, -62.50225747716745]}}]}